NORAD_CAT_ID,OBJECT_NAME,OBJECT_TYPE,EPOCH,MEAN_MOTION,ECCENTRICITY,INCLINATION,RA_OF_ASC_NODE,ARG_OF_PERICENTER,MEAN_ANOMALY,BSTAR,MEAN_MOTION_DOT,MEAN_MOTION_DDOT,TLE_LINE0,TLE_LINE1,TLE_LINE2,SEMIMAJOR_AXIS,PERIOD,APOGEE,PERIGEE,DECAYED
53258.0,STARLINK-4127,PAYLOAD,2022-09-22 06:00:00,15.30683081,0.0001286,53.2174,111.1528,64.6936,22.4442,-0.038713,-0.01067331,0.0,0 STARLINK-4127,1 53258U 22086S   22265.25001157 -.01067331  00000-0 -38713-1 0  9995,2 53258  53.2174 111.1528 0001286  64.6936  22.4442 15.30683081  9986,6851.91,94.076,474.656,472.894,0.0
53258.0,STARLINK-4127,PAYLOAD,2022-09-22 14:00:01,15.29945859,0.0001326,53.2173,109.6058,75.7168,48.7858,-0.04075,-0.01095405,0.0,0 STARLINK-4127,1 53258U 22086S   22265.58334491 -.01095405  00000-0 -40750-1 0  9998,2 53258  53.2173 109.6058 0001326  75.7168  48.7858 15.29945859  1302,6854.111,94.121,476.885,475.067,0.0
53258.0,STARLINK-4127,PAYLOAD,2022-09-22 22:00:00,15.29166785,0.0001338,53.2176,108.0628,82.4068,78.5701,-0.040725,-0.01070778,0.0,0 STARLINK-4127,1 53258U 22086S   22265.91667824 -.01070778  00000-0 -40725-1 0  9992,2 53258  53.2176 108.0628 0001338  82.4068  78.5701 15.29166785  1309,6856.439,94.169,479.221,477.386,0.0
53258.0,STARLINK-4127,PAYLOAD,2022-09-23 06:00:00,15.28405274,0.0001355,53.2175,106.5166,89.8352,106.6963,-0.0415839999999999,-0.01068181,0.0,0 STARLINK-4127,1 53258U 22086S   22266.25001157 -.01068181  00000-0 -41584-1 0  9990,2 53258  53.2175 106.5166 0001355  89.8352 106.6963 15.28405274 10136,6858.715999999999,94.216,481.51,479.652,0.0
53258.0,STARLINK-4127,PAYLOAD,2022-09-23 14:00:01,15.27672434,0.0001419,53.2172,104.9752,79.9117,151.2436,-0.043945,-0.01100691,0.0,0 STARLINK-4127,1 53258U 22086S   22266.58334491 -.01100691  00000-0 -43945-1 0  9992,2 53258  53.2172 104.9752 0001419  79.9117 151.2436 15.27672434  1309,6860.909000000002,94.261,483.74800000000016,481.801,0.0
53258.0,STARLINK-4127,PAYLOAD,2022-09-23 22:00:00,15.26898602,0.0001361999999999,53.2176,103.4375,83.1492,181.7395,-0.044201,-0.01082798,0.0,0 STARLINK-4127,1 53258U 22086S   22266.91667824 -.01082798  00000-0 -44201-1 0  9991,2 53258  53.2176 103.4375 0001362  83.1492 181.7395 15.26898602  1306,6863.227,94.309,486.027,484.157,0.0
53258.0,STARLINK-4127,PAYLOAD,2022-09-24 06:00:00,15.26153013,0.0001262,53.2173,101.8981,73.9999,223.6971,-0.046142,-0.01103054,0.0,0 STARLINK-4127,1 53258U 22086S   22267.25001157 -.01103054  00000-0 -46142-1 0  9995,2 53258  53.2173 101.8981 0001262  73.9999 223.6971 15.26153013 10290,6865.462,94.355,488.194,486.461,0.0
53258.0,STARLINK-4127,PAYLOAD,2022-09-24 14:00:01,15.25390207,0.0001248,53.2172,100.3605,80.5342,249.1287,-0.046885,-0.01095842,0.0,0 STARLINK-4127,1 53258U 22086S   22267.58335648 -.01095842  00000-0 -46885-1 0  9995,2 53258  53.2172 100.3605 0001248  80.5342 249.1287 15.25390207  1308,6867.751,94.402,490.473,488.759,0.0
53258.0,STARLINK-4127,PAYLOAD,2022-09-24 22:00:00,15.24606441,0.000125,53.2176,98.827,67.6203,292.9806,-0.046556,-0.01065436,0.0,0 STARLINK-4127,1 53258U 22086S   22267.91667824 -.01065436  00000-0 -46556-1 0  9997,2 53258  53.2176  98.8270 0001250  67.6203 292.9806 15.24606441  1319,6870.104,94.451,492.828,491.111,0.0
53258.0,STARLINK-4127,PAYLOAD,2022-09-25 06:00:00,15.23847049,0.0001144,53.2175,97.2925,82.0894,308.5887,-0.047665,-0.01066123,0.0,0 STARLINK-4127,1 53258U 22086S   22268.25001157 -.01066123  00000-0 -47665-1 0  9992,2 53258  53.2175  97.2925 0001144  82.0894 308.5887 15.23847049 10444,6872.387,94.498,495.038,493.466,0.0
53258.0,STARLINK-4127,PAYLOAD,2022-09-25 14:00:01,15.23086514,0.0001211999999999,53.2176,95.7614,82.3863,337.4553,-0.048632,-0.01063532,0.0,0 STARLINK-4127,1 53258U 22086S   22268.58334491 -.01063532  00000-0 -48632-1 0  9994,2 53258  53.2176  95.7614 0001212  82.3863 337.4553 15.23086514  1306,6874.674,94.545,497.372,495.706,0.0
53258.0,STARLINK-4127,PAYLOAD,2022-09-25 22:00:01,15.22326594,0.0001315999999999,53.2176,94.2337,70.2516,17.9034,-0.049741,-0.01063471,0.0,0 STARLINK-4127,1 53258U 22086S   22268.91668981 -.01063471  00000-0 -49741-1 0  9999,2 53258  53.2176  94.2337 0001316  70.2516  17.9034 15.22326594  1306,6876.962,94.592,499.732,497.922,0.0
53258.0,STARLINK-4127,PAYLOAD,2022-09-26 10:00:00,15.21185596,0.0001230999999999,53.2173,91.9409,83.5568,225.2016,-0.0513049999999999,-0.01060696,0.0,0 STARLINK-4127,1 53258U 22086S   22269.41667824 -.01060696  00000-0 -51305-1 0  9995,2 53258  53.2173  91.9409 0001231  83.5568 225.2016 15.21185596 10620,6880.4,94.663,503.112,501.418,0.0
53258.0,STARLINK-4127,PAYLOAD,2022-09-26 14:00:01,15.20876955,0.0001453,53.217,91.1796,70.2979,71.5225,-0.0568539999999999,-0.01171269,0.0,0 STARLINK-4127,1 53258U 22086S   22269.58334491 -.01171269  00000-0 -56854-1 0  9997,2 53258  53.2170  91.1796 0001453  70.2979  71.5225 15.20876955  1307,6881.331,94.682,504.196,502.196,0.0
53258.0,STARLINK-4127,PAYLOAD,2022-09-26 22:00:00,15.20036791,0.0001412,53.2173,89.6578,75.7365,91.6359,-0.052345,-0.01047451,0.0,0 STARLINK-4127,1 53258U 22086S   22269.91667824 -.01047451  00000-0 -52345-1 0  9999,2 53258  53.2173  89.6578 0001412  75.7365  91.6359 15.20036791  1301,6883.8669999999975,94.735,506.704,504.76,0.0
53258.0,STARLINK-4127,PAYLOAD,2022-09-27 06:00:00,15.1928794,0.0001384,53.2174,88.1328,77.8541,114.1147,-0.0543049999999999,-0.01061817,0.0,0 STARLINK-4127,1 53258U 22086S   22270.25001157 -.01061817  00000-0 -54305-1 0  9999,2 53258  53.2174  88.1328 0001384  77.8541 114.1147 15.19287940 10742,6886.128000000002,94.781,508.946,507.04,0.0
53258.0,STARLINK-4127,PAYLOAD,2022-09-27 14:00:01,15.18575976,0.0001330999999999,53.2171,86.6133,75.2602,140.3701,-0.058971,-0.0113846,0.0,0 STARLINK-4127,1 53258U 22086S   22270.58334491 -.01138460  00000-0 -58971-1 0  9997,2 53258  53.2171  86.6133 0001331  75.2602 140.3701 15.18575976  1305,6888.281,94.826,511.062,509.229,0.0
53258.0,STARLINK-4127,PAYLOAD,2022-09-27 22:00:01,15.17837026,0.0001331999999999,53.2171,85.0967,68.2648,170.1902,-0.061692,-0.0116362,0.0,0 STARLINK-4127,1 53258U 22086S   22270.91668981 -.01163620  00000-0 -61692-1 0  9998,2 53258  53.2171  85.0967 0001332  68.2648 170.1902 15.17837026  1306,6890.516,94.872,513.299,511.463,0.0
53258.0,STARLINK-4127,PAYLOAD,2022-09-28 06:00:00,15.16978542,0.0001351999999999,53.2172,83.5779,69.243,191.0639,-0.055505,-0.01018713,0.0,0 STARLINK-4127,1 53258U 22086S   22271.25001157 -.01018713  00000-0 -55505-1 0  9990,2 53258  53.2172  83.5779 0001352  69.2430 191.0639 15.16978542 10894,6893.115,94.926,515.9119999999998,514.048,0.0
53258.0,STARLINK-4127,PAYLOAD,2022-09-28 14:00:01,15.16249942,0.0001385999999999,53.2175,82.0619,68.2397,213.0021,-0.0592549999999999,-0.0107462,0.0,0 STARLINK-4127,1 53258U 22086S   22271.58334491 -.01074620  00000-0 -59255-1 0  9991,2 53258  53.2175  82.0619 0001386  68.2397 213.0021 15.16249942  1303,6895.323,94.971,518.144,516.2330000000002,0.0
53258.0,STARLINK-4127,PAYLOAD,2022-09-28 22:00:00,15.15494864,0.0001346,53.217,80.5514,74.237,227.0375,-0.060877,-0.01080012,0.0,0 STARLINK-4127,1 53258U 22086S   22271.91667824 -.01080012  00000-0 -60877-1 0  9991,2 53258  53.2170  80.5514 0001346  74.2370 227.0375 15.15494864 11008,6897.614000000001,95.018,520.4069999999998,518.55,0.0
53258.0,STARLINK-4127,PAYLOAD,2022-09-29 14:00:01,15.14003914,0.000136,53.217,77.5281,68.1422,270.4547,-0.065987,-0.01118906,0.0,0 STARLINK-4127,1 53258U 22086S   22272.58334491 -.01118906  00000-0 -65987-1 0  9997,2 53258  53.2170  77.5281 0001360  68.1422 270.4547 15.14003914  1307,6902.141,95.112,524.945,523.068,0.0
53258.0,STARLINK-4127,PAYLOAD,2022-09-29 22:00:00,15.13256388,0.0001186,53.217,76.02199999999998,60.7354,295.1516,-0.0682909999999999,-0.01132599,0.0,0 STARLINK-4127,1 53258U 22086S   22272.91667824 -.01132599  00000-0 -68291-1 0  9998,2 53258  53.2170  76.0220 0001186  60.7354 295.1516 15.13256388 11150,6904.4140000000025,95.159,527.0980000000002,525.46,0.0
53258.0,STARLINK-4127,PAYLOAD,2022-09-30 14:00:01,15.11699282,0.0001271,53.2171,73.0093,67.1666,320.6015,-0.067969,-0.01082961,0.0,0 STARLINK-4127,1 53258U 22086S   22273.58334491 -.01082961  00000-0 -67969-1 0  9991,2 53258  53.2171  73.0093 0001271  67.1666 320.6015 15.11699282  1304,6909.154,95.257,531.898,530.141,0.0
53258.0,STARLINK-4127,PAYLOAD,2022-09-30 16:00:00,15.11504016,0.0001467,53.2171,72.6337,64.9801,56.5168,-0.067887,-0.01076324,0.0,0 STARLINK-4127,1 53258U 22086S   22273.66667824 -.01076324  00000-0 -67887-1 0  9994,2 53258  53.2171  72.6337 0001467  64.9801  56.5168 15.11504016 11263,6909.75,95.269,532.628,530.601,0.0
53258.0,STARLINK-4127,PAYLOAD,2022-09-30 22:00:00,15.10953375,0.000143,53.217,71.5084,54.8039,347.517,-0.070654,-0.01101113,0.0,0 STARLINK-4127,1 53258U 22086S   22273.91667824 -.01101113  00000-0 -70654-1 0  9993,2 53258  53.2170  71.5084 0001430  54.8039 347.5170 15.10953375  1305,6911.428000000001,95.304,534.2819999999998,532.305,0.0
53258.0,STARLINK-4127,PAYLOAD,2022-10-01 14:00:01,15.09323442,0.0001396999999999,53.2172,68.5071,60.3138,8.4023,-0.038806,-0.0058442,0.0,0 STARLINK-4127,1 53258U 22086S   22274.58334491 -.00584420  00000-0 -38806-1 0  9996,2 53258  53.2172  68.5071 0001397  60.3138   8.4023 15.09323442 11409,6916.403,95.407,539.234,537.302,0.0
53258.0,STARLINK-4127,PAYLOAD,2022-10-01 22:00:00,15.08882558,0.0001599,53.2162,67.0175,58.1534,22.4281,-0.0021352,-0.00034149,0.0,0 STARLINK-4127,1 53258U 22086S   22274.91667824 -.00034149  00000-0 -21352-2 0  9999,2 53258  53.2162  67.0175 0001599  58.1534  22.4281 15.08882558 11450,6917.75,95.435,540.721,538.509,0.0
53258.0,STARLINK-4127,PAYLOAD,2022-10-02 14:00:01,15.08908959,0.00015,53.2168,64.0246,60.4606,43.3871,-0.004277,-0.00067843,0.0,0 STARLINK-4127,1 53258U 22086S   22275.58334491 -.00067843  00000-0 -42770-2 0  9998,2 53258  53.2168  64.0246 0001500  60.4606  43.3871 15.08908959 11552,6917.67,95.433,540.572,538.497,0.0
